ONEWEB-0349             
1 49281U 21090C   26204.13668943  .00000104  00000+0  22272-3 0  9992
2 49281  87.9172 267.2771 0002049  97.3428 262.7938 13.20771006234575
ONEWEB-0353             
1 49282U 21090D   26203.60548142  .00000144  00000+0  35269-3 0  9996
2 49282  87.8962 282.6485 0002083 107.6848 252.4510 13.14502765232234
ONEWEB-0356             
1 49283U 21090E   26204.21076803  .00000064  00000+0  12517-3 0  9997
2 49283  87.9176 267.2561 0001291 105.3615 254.7661 13.20771760234586
ONEWEB-0358             
1 49284U 21090F   26204.17119467 -.00000017  00000+0 -73227-4 0  9993
2 49284  87.9185 267.2724 0001862  93.7611 266.3735 13.20771008235305
ONEWEB-0359             
1 49285U 21090G   26204.16194373 -.00000107  00000+0 -29459-3 0  9999
2 49285  87.9181 267.2658 0001973  89.3668 270.7691 13.20770365235286
ONEWEB-0360             
1 49286U 21090H   26204.15185536  .00000021  00000+0  18526-4 0  9997
2 49286  87.9173 267.2738 0002129  96.1577 263.9799 13.20771398234599
ONEWEB-0361             
1 49287U 21090J   26204.20907699  .00000034  00000+0  50856-4 0  9992
2 49287  87.9175 267.2613 0001959  94.8459 265.2898 13.20769963235050
ONEWEB-0362             
1 49288U 21090K   26204.19019124  .00000025  00000+0  30298-4 0  9996
2 49288  87.9183 297.8092 0002264  98.3118 261.8271 13.19723663231666
ONEWEB-0363             
1 49289U 21090L   26204.14847385  .00000019  00000+0  15807-4 0  9992
2 49289  87.9179 267.2732 0001715  97.5883 262.5445 13.20772444235055
ONEWEB-0364             
1 49290U 21090M   26204.18719783  .00000025  00000+0  29642-4 0  9997
2 49290  87.9177 267.2734 0002109  97.6209 262.5164 13.20771278236196
ONEWEB-0365             
1 49291U 21090N   26204.19967632  .00000071  00000+0  14433-3 0  9999
2 49291  87.9191 297.7983 0002112 101.3286 258.8084 13.19727047231174
ONEWEB-0366             
1 49292U 21090P   26204.21125993  .00000215  00000+0  54501-3 0  9999
2 49292  87.8966 282.5299 0002009  96.5849 263.5510 13.14502962232294
ONEWEB-0367             
1 49293U 21090Q   26204.14761913  .00000017  00000+0  90195-5 0  9991
2 49293  87.9177 267.2754 0002237 100.4115 259.7271 13.20773686234574
ONEWEB-0368             
1 49294U 21090R   26204.19730640  .00000034  00000+0  50752-4 0  9993
2 49294  87.9166 267.2713 0001879 117.6395 242.4929 13.20772475235732
ONEWEB-0369             
1 49295U 21090S   26204.19493711  .00000053  00000+0  10061-3 0  9998
2 49295  87.9181 297.8042 0002029 102.8546 257.2814 13.19727156231160
ONEWEB-0370             
1 49296U 21090T   26204.15689166  .00000044  00000+0  75514-4 0  9991
2 49296  87.9176 267.2724 0002202  91.4758 268.6628 13.20772369234614
