{"fetched_at":"2026-07-23T17:55:08.470Z","source":"https://celestrak.org/NORAD/elements/gp.php?GROUP=oneweb&FORMAT=JSON","constellation":"oneweb","records":[{"OBJECT_NAME":"ONEWEB-0349","OBJECT_ID":"2021-090C","EPOCH":"2026-07-23T03:16:49.966752","CLASSIFICATION_TYPE":"U","MEAN_MOTION":13.20771006,"ECCENTRICITY":0.0002049,"INCLINATION":87.9172,"RA_OF_ASC_NODE":267.2771,"ARG_OF_PERICENTER":97.3428,"MEAN_ANOMALY":262.7938,"EPHEMERIS_TYPE":0,"NORAD_CAT_ID":49281,"ELEMENT_SET_NO":999,"REV_AT_EPOCH":23457,"BSTAR":0.00022271871,"MEAN_MOTION_DOT":0.00000104,"MEAN_MOTION_DDOT":0},{"OBJECT_NAME":"ONEWEB-0353","OBJECT_ID":"2021-090D","EPOCH":"2026-07-22T14:31:53.594688","CLASSIFICATION_TYPE":"U","MEAN_MOTION":13.14502765,"ECCENTRICITY":0.00020833,"INCLINATION":87.8962,"RA_OF_ASC_NODE":282.6485,"ARG_OF_PERICENTER":107.6848,"MEAN_ANOMALY":252.451,"EPHEMERIS_TYPE":0,"NORAD_CAT_ID":49282,"ELEMENT_SET_NO":999,"REV_AT_EPOCH":23223,"BSTAR":0.00035268707,"MEAN_MOTION_DOT":0.00000144,"MEAN_MOTION_DDOT":0},{"OBJECT_NAME":"ONEWEB-0356","OBJECT_ID":"2021-090E","EPOCH":"2026-07-23T05:03:30.357792","CLASSIFICATION_TYPE":"U","MEAN_MOTION":13.2077176,"ECCENTRICITY":0.00012912,"INCLINATION":87.9176,"RA_OF_ASC_NODE":267.2561,"ARG_OF_PERICENTER":105.3615,"MEAN_ANOMALY":254.7661,"EPHEMERIS_TYPE":0,"NORAD_CAT_ID":49283,"ELEMENT_SET_NO":999,"REV_AT_EPOCH":23458,"BSTAR":0.00012517472,"MEAN_MOTION_DOT":6.4e-7,"MEAN_MOTION_DDOT":0},{"OBJECT_NAME":"ONEWEB-0358","OBJECT_ID":"2021-090F","EPOCH":"2026-07-23T04:06:31.219488","CLASSIFICATION_TYPE":"U","MEAN_MOTION":13.20771008,"ECCENTRICITY":0.00018622,"INCLINATION":87.9185,"RA_OF_ASC_NODE":267.2724,"ARG_OF_PERICENTER":93.7611,"MEAN_ANOMALY":266.3735,"EPHEMERIS_TYPE":0,"NORAD_CAT_ID":49284,"ELEMENT_SET_NO":999,"REV_AT_EPOCH":23530,"BSTAR":-0.000073227123,"MEAN_MOTION_DOT":-1.7e-7,"MEAN_MOTION_DDOT":0},{"OBJECT_NAME":"ONEWEB-0359","OBJECT_ID":"2021-090G","EPOCH":"2026-07-23T03:53:11.938272","CLASSIFICATION_TYPE":"U","MEAN_MOTION":13.20770365,"ECCENTRICITY":0.00019739,"INCLINATION":87.9181,"RA_OF_ASC_NODE":267.2658,"ARG_OF_PERICENTER":89.3668,"MEAN_ANOMALY":270.7691,"EPHEMERIS_TYPE":0,"NORAD_CAT_ID":49285,"ELEMENT_SET_NO":999,"REV_AT_EPOCH":23528,"BSTAR":-0.00029459268,"MEAN_MOTION_DOT":-0.00000107,"MEAN_MOTION_DDOT":0},{"OBJECT_NAME":"ONEWEB-0360","OBJECT_ID":"2021-090H","EPOCH":"2026-07-23T03:38:40.303104","CLASSIFICATION_TYPE":"U","MEAN_MOTION":13.20771398,"ECCENTRICITY":0.00021293,"INCLINATION":87.9173,"RA_OF_ASC_NODE":267.2738,"ARG_OF_PERICENTER":96.1577,"MEAN_ANOMALY":263.9799,"EPHEMERIS_TYPE":0,"NORAD_CAT_ID":49286,"ELEMENT_SET_NO":999,"REV_AT_EPOCH":23459,"BSTAR":0.000018526253,"MEAN_MOTION_DOT":2.1e-7,"MEAN_MOTION_DDOT":0},{"OBJECT_NAME":"ONEWEB-0361","OBJECT_ID":"2021-090J","EPOCH":"2026-07-23T05:01:04.251936","CLASSIFICATION_TYPE":"U","MEAN_MOTION":13.20769963,"ECCENTRICITY":0.00019594,"INCLINATION":87.9175,"RA_OF_ASC_NODE":267.2613,"ARG_OF_PERICENTER":94.8459,"MEAN_ANOMALY":265.2898,"EPHEMERIS_TYPE":0,"NORAD_CAT_ID":49287,"ELEMENT_SET_NO":999,"REV_AT_EPOCH":23505,"BSTAR":0.000050856373,"MEAN_MOTION_DOT":3.4e-7,"MEAN_MOTION_DDOT":0},{"OBJECT_NAME":"ONEWEB-0362","OBJECT_ID":"2021-090K","EPOCH":"2026-07-23T04:33:52.523136","CLASSIFICATION_TYPE":"U","MEAN_MOTION":13.19723663,"ECCENTRICITY":0.00022644,"INCLINATION":87.9183,"RA_OF_ASC_NODE":297.8092,"ARG_OF_PERICENTER":98.3118,"MEAN_ANOMALY":261.8271,"EPHEMERIS_TYPE":0,"NORAD_CAT_ID":49288,"ELEMENT_SET_NO":999,"REV_AT_EPOCH":23166,"BSTAR":0.000030298215,"MEAN_MOTION_DOT":2.5e-7,"MEAN_MOTION_DDOT":0},{"OBJECT_NAME":"ONEWEB-0363","OBJECT_ID":"2021-090L","EPOCH":"2026-07-23T03:33:48.140640","CLASSIFICATION_TYPE":"U","MEAN_MOTION":13.20772444,"ECCENTRICITY":0.00017158,"INCLINATION":87.9179,"RA_OF_ASC_NODE":267.2732,"ARG_OF_PERICENTER":97.5883,"MEAN_ANOMALY":262.5445,"EPHEMERIS_TYPE":0,"NORAD_CAT_ID":49289,"ELEMENT_SET_NO":999,"REV_AT_EPOCH":23505,"BSTAR":0.000015806533,"MEAN_MOTION_DOT":1.9e-7,"MEAN_MOTION_DDOT":0},{"OBJECT_NAME":"ONEWEB-0364","OBJECT_ID":"2021-090M","EPOCH":"2026-07-23T04:29:33.892512","CLASSIFICATION_TYPE":"U","MEAN_MOTION":13.20771278,"ECCENTRICITY":0.0002109,"INCLINATION":87.9177,"RA_OF_ASC_NODE":267.2734,"ARG_OF_PERICENTER":97.6209,"MEAN_ANOMALY":262.5164,"EPHEMERIS_TYPE":0,"NORAD_CAT_ID":49290,"ELEMENT_SET_NO":999,"REV_AT_EPOCH":23619,"BSTAR":0.000029642105,"MEAN_MOTION_DOT":2.5e-7,"MEAN_MOTION_DDOT":0},{"OBJECT_NAME":"ONEWEB-0365","OBJECT_ID":"2021-090N","EPOCH":"2026-07-23T04:47:32.034048","CLASSIFICATION_TYPE":"U","MEAN_MOTION":13.19727047,"ECCENTRICITY":0.00021122,"INCLINATION":87.9191,"RA_OF_ASC_NODE":297.7983,"ARG_OF_PERICENTER":101.3286,"MEAN_ANOMALY":258.8084,"EPHEMERIS_TYPE":0,"NORAD_CAT_ID":49291,"ELEMENT_SET_NO":999,"REV_AT_EPOCH":23117,"BSTAR":0.00014433153,"MEAN_MOTION_DOT":7.1e-7,"MEAN_MOTION_DDOT":0},{"OBJECT_NAME":"ONEWEB-0366","OBJECT_ID":"2021-090P","EPOCH":"2026-07-23T05:04:12.857952","CLASSIFICATION_TYPE":"U","MEAN_MOTION":13.14502962,"ECCENTRICITY":0.00020095,"INCLINATION":87.8966,"RA_OF_ASC_NODE":282.5299,"ARG_OF_PERICENTER":96.5849,"MEAN_ANOMALY":263.551,"EPHEMERIS_TYPE":0,"NORAD_CAT_ID":49292,"ELEMENT_SET_NO":999,"REV_AT_EPOCH":23229,"BSTAR":0.00054500959,"MEAN_MOTION_DOT":0.00000215,"MEAN_MOTION_DDOT":0},{"OBJECT_NAME":"ONEWEB-0367","OBJECT_ID":"2021-090Q","EPOCH":"2026-07-23T03:32:34.292832","CLASSIFICATION_TYPE":"U","MEAN_MOTION":13.20773686,"ECCENTRICITY":0.00022371,"INCLINATION":87.9177,"RA_OF_ASC_NODE":267.2754,"ARG_OF_PERICENTER":100.4115,"MEAN_ANOMALY":259.7271,"EPHEMERIS_TYPE":0,"NORAD_CAT_ID":49293,"ELEMENT_SET_NO":999,"REV_AT_EPOCH":23457,"BSTAR":0.000009019481,"MEAN_MOTION_DOT":1.7e-7,"MEAN_MOTION_DDOT":0},{"OBJECT_NAME":"ONEWEB-0368","OBJECT_ID":"2021-090R","EPOCH":"2026-07-23T04:44:07.272960","CLASSIFICATION_TYPE":"U","MEAN_MOTION":13.20772475,"ECCENTRICITY":0.0001879,"INCLINATION":87.9166,"RA_OF_ASC_NODE":267.2713,"ARG_OF_PERICENTER":117.6395,"MEAN_ANOMALY":242.4929,"EPHEMERIS_TYPE":0,"NORAD_CAT_ID":49294,"ELEMENT_SET_NO":999,"REV_AT_EPOCH":23573,"BSTAR":0.000050752335,"MEAN_MOTION_DOT":3.4e-7,"MEAN_MOTION_DDOT":0},{"OBJECT_NAME":"ONEWEB-0369","OBJECT_ID":"2021-090S","EPOCH":"2026-07-23T04:40:42.566304","CLASSIFICATION_TYPE":"U","MEAN_MOTION":13.19727156,"ECCENTRICITY":0.00020299,"INCLINATION":87.9181,"RA_OF_ASC_NODE":297.8042,"ARG_OF_PERICENTER":102.8546,"MEAN_ANOMALY":257.2814,"EPHEMERIS_TYPE":0,"NORAD_CAT_ID":49295,"ELEMENT_SET_NO":999,"REV_AT_EPOCH":23116,"BSTAR":0.00010060684,"MEAN_MOTION_DOT":5.3e-7,"MEAN_MOTION_DDOT":0},{"OBJECT_NAME":"ONEWEB-0370","OBJECT_ID":"2021-090T","EPOCH":"2026-07-23T03:45:55.439424","CLASSIFICATION_TYPE":"U","MEAN_MOTION":13.20772369,"ECCENTRICITY":0.00022022,"INCLINATION":87.9176,"RA_OF_ASC_NODE":267.2724,"ARG_OF_PERICENTER":91.4758,"MEAN_ANOMALY":268.6628,"EPHEMERIS_TYPE":0,"NORAD_CAT_ID":49296,"ELEMENT_SET_NO":999,"REV_AT_EPOCH":23461,"BSTAR":0.000075514011,"MEAN_MOTION_DOT":4.4e-7,"MEAN_MOTION_DDOT":0}]}
